{
    "links": {
        "self": "http://www.neowsapp.com/rest/v1/neo/3758999?api_key=iIulBulltgU6a56xZRHN4H3l9WmuAYTsLGpBGhQ2"
    },
    "id": "3758999",
    "neo_reference_id": "3758999",
    "name": "(2016 RK17)",
    "designation": "2016 RK17",
    "nasa_jpl_url": "http://ssd.jpl.nasa.gov/sbdb.cgi?sstr=3758999",
    "absolute_magnitude_h": 25.3,
    "estimated_diameter": {
        "kilometers": {
            "estimated_diameter_min": 0.0231502122,
            "estimated_diameter_max": 0.0517654482
        },
        "meters": {
            "estimated_diameter_min": 23.150212221,
            "estimated_diameter_max": 51.7654482198
        },
        "miles": {
            "estimated_diameter_min": 0.0143848705,
            "estimated_diameter_max": 0.0321655483
        },
        "feet": {
            "estimated_diameter_min": 75.9521422633,
            "estimated_diameter_max": 169.8341531374
        }
    },
    "is_potentially_hazardous_asteroid": false,
    "close_approach_data": [
        {
            "close_approach_date": "2016-08-31",
            "close_approach_date_full": "2016-Aug-31 23:00",
            "epoch_date_close_approach": 1472684400000,
            "relative_velocity": {
                "kilometers_per_second": "8.6386540898",
                "kilometers_per_hour": "31099.154723239",
                "miles_per_hour": "19323.8053334482"
            },
            "miss_distance": {
                "astronomical": "0.0492714861",
                "lunar": "19.1666080929",
                "kilometers": "7370909.372294607",
                "miles": "4580070.7032432966"
            },
            "orbiting_body": "Earth"
        },
        {
            "close_approach_date": "2019-10-01",
            "close_approach_date_full": "2019-Oct-01 03:23",
            "epoch_date_close_approach": 1569900180000,
            "relative_velocity": {
                "kilometers_per_second": "18.2022500412",
                "kilometers_per_hour": "65528.100148338",
                "miles_per_hour": "40716.6131171715"
            },
            "miss_distance": {
                "astronomical": "0.3657437644",
                "lunar": "142.2743243516",
                "kilometers": "54714488.120021828",
                "miles": "33998006.4092761064"
            },
            "orbiting_body": "Earth"
        }
    ],
    "orbital_data": {
        "orbit_id": "7",
        "orbit_determination_date": "2017-04-06 08:24:08",
        "first_observation_date": "2016-09-05",
        "last_observation_date": "2016-09-23",
        "data_arc_in_days": 18,
        "observations_used": 58,
        "orbit_uncertainty": "8",
        "minimum_orbit_intersection": ".0416209",
        "jupiter_tisserand_invariant": "3.556",
        "epoch_osculation": "2457638.5",
        "eccentricity": ".5109929265517601",
        "semi_major_axis": "2.106439693767196",
        "inclination": "6.887160463358284",
        "ascending_node_longitude": "166.3379668322718",
        "orbital_period": "1116.662603088809",
        "perihelion_distance": "1.030063910044303",
        "perihelion_argument": "152.2702521826066",
        "aphelion_distance": "3.182815477490088",
        "perihelion_time": "2457616.008252740295",
        "mean_anomaly": "7.251097145276062",
        "mean_motion": ".3223892328839537",
        "equinox": "J2000",
        "orbit_class": {
            "orbit_class_type": "AMO",
            "orbit_class_description": "Near-Earth asteroid orbits similar to that of 1221 Amor",
            "orbit_class_range": "1.017 AU < q (perihelion) < 1.3 AU"
        }
    },
    "is_sentry_object": false
}